start=new Date('2022-02-27T00:00:00.000Z').valueOf();
sats=[{"TLE_LINE1":"1 48362U 21038K   22057.69143318  .00001281  00000-0  10491-3 0  9998","EPHEMERIS_TYPE":"0","LAUNCH_DATE":"2021-05-04","ARG_OF_PERICENTER":"54.1559","RCS_SIZE":"LARGE","REV_AT_EPOCH":"4516","MEAN_ELEMENT_THEORY":"SGP4","COUNTRY_CODE":"US","MEAN_MOTION_DDOT":"0.0000000000000","CLASSIFICATION_TYPE":"U","CENTER_NAME":"EARTH","REF_FRAME":"TEME","MEAN_MOTION":"15.06391130","TLE_LINE2":"2 48362  53.0567 129.6822 0001774  54.1559 305.9594 15.06391130 45169","EPOCH":"2022-02-26T16:35:39.826752","SEMIMAJOR_AXIS":"6925.376","OBJECT_NAME":"STARLINK-2578","MEAN_MOTION_DOT":"0.00001281","ELEMENT_SET_NO":"999","SITE":"AFETR","DECAY_DATE":null,"RA_OF_ASC_NODE":"129.6822","OBJECT_TYPE":"PAYLOAD","PERIAPSIS":"546.012","MEAN_ANOMALY":"305.9594","INCLINATION":"53.0567","PERIOD":"95.593","BSTAR":"0.00010491000000","TIME_SYSTEM":"UTC","GP_ID":"197159074","APOAPSIS":"548.469","FILE":"3327391","OBJECT_ID":"2021-038K","NORAD_CAT_ID":"48362","ECCENTRICITY":"0.00017740"},{"REV_AT_EPOCH":"4526","RCS_SIZE":"LARGE","MEAN_ELEMENT_THEORY":"SGP4","LAUNCH_DATE":"2021-05-04","ARG_OF_PERICENTER":"68.8481","EPHEMERIS_TYPE":"0","TLE_LINE1":"1 48363U 21038L   22057.90847126  .00000147  00000-0  28804-4 0  9999","EPOCH":"2022-02-26T21:48:11.916864","TLE_LINE2":"2 48363  53.0548 123.6963 0001625  68.8481 291.2681 15.06390884 45260","MEAN_MOTION":"15.06390884","COUNTRY_CODE":"US","REF_FRAME":"TEME","MEAN_MOTION_DDOT":"0.0000000000000","CLASSIFICATION_TYPE":"U","CENTER_NAME":"EARTH","BSTAR":"0.00002880400000","MEAN_ANOMALY":"291.2681","PERIAPSIS":"546.116","PERIOD":"95.593","INCLINATION":"53.0548","DECAY_DATE":null,"OBJECT_TYPE":"PAYLOAD","RA_OF_ASC_NODE":"123.6963","SITE":"AFETR","MEAN_MOTION_DOT":"0.00000147","SEMIMAJOR_AXIS":"6925.376","ELEMENT_SET_NO":"999","OBJECT_NAME":"STARLINK-2626","ECCENTRICITY":"0.00016250","NORAD_CAT_ID":"48363","FILE":"3327391","OBJECT_ID":"2021-038L","APOAPSIS":"548.367","TIME_SYSTEM":"UTC","GP_ID":"197160326"},{"TIME_SYSTEM":"UTC","GP_ID":"197160072","ECCENTRICITY":"0.00015930","NORAD_CAT_ID":"48364","APOAPSIS":"548.317","FILE":"3327391","OBJECT_ID":"2021-038M","DECAY_DATE":null,"RA_OF_ASC_NODE":"123.7239","OBJECT_TYPE":"PAYLOAD","MEAN_MOTION_DOT":"0.00001579","SEMIMAJOR_AXIS":"6925.349","ELEMENT_SET_NO":"999","OBJECT_NAME":"STARLINK-2611","SITE":"AFETR","BSTAR":"0.00012486000000","PERIAPSIS":"546.110","MEAN_ANOMALY":"295.0913","PERIOD":"95.592","INCLINATION":"53.0554","MEAN_MOTION":"15.06399958","COUNTRY_CODE":"US","MEAN_MOTION_DDOT":"0.0000000000000","CENTER_NAME":"EARTH","CLASSIFICATION_TYPE":"U","REF_FRAME":"TEME","TLE_LINE2":"2 48364  53.0554 123.7239 0001593  65.0241 295.0913 15.06399958 45263","EPOCH":"2022-02-26T21:41:31.022592","EPHEMERIS_TYPE":"0","TLE_LINE1":"1 48364U 21038M   22057.90383128  .00001579  00000-0  12486-3 0  9995","RCS_SIZE":"LARGE","REV_AT_EPOCH":"4526","MEAN_ELEMENT_THEORY":"SGP4","LAUNCH_DATE":"2021-05-04","ARG_OF_PERICENTER":"65.0241"},{"EPHEMERIS_TYPE":"0","TLE_LINE1":"1 48365U 21038N   22057.88266191  .00001695  00000-0  13267-3 0  9990","REV_AT_EPOCH":"4526","RCS_SIZE":"LARGE","MEAN_ELEMENT_THEORY":"SGP4","ARG_OF_PERICENTER":"72.3934","LAUNCH_DATE":"2021-05-04","MEAN_MOTION":"15.06397727","COUNTRY_CODE":"US","REF_FRAME":"TEME","CENTER_NAME":"EARTH","MEAN_MOTION_DDOT":"0.0000000000000","CLASSIFICATION_TYPE":"U","EPOCH":"2022-02-26T21:11:01.989024","TLE_LINE2":"2 48365  53.0541 123.8306 0001517  72.3934 287.7220 15.06397727 45263","DECAY_DATE":null,"OBJECT_TYPE":"PAYLOAD","RA_OF_ASC_NODE":"123.8306","SITE":"AFETR","SEMIMAJOR_AXIS":"6925.356","MEAN_MOTION_DOT":"0.00001695","ELEMENT_SET_NO":"999","OBJECT_NAME":"STARLINK-2608","BSTAR":"0.00013267000000","MEAN_ANOMALY":"287.7220","PERIAPSIS":"546.170","PERIOD":"95.592","INCLINATION":"53.0541","TIME_SYSTEM":"UTC","GP_ID":"197159325","NORAD_CAT_ID":"48365","ECCENTRICITY":"0.00015170","OBJECT_ID":"2021-038N","FILE":"3327391","APOAPSIS":"548.271"},{"EPOCH":"2022-02-26T20:53:07.710432","TLE_LINE2":"2 48366  53.0551 118.8679 0001506  65.9819 294.1327 15.06387680 45324","MEAN_MOTION":"15.06387680","COUNTRY_CODE":"US","REF_FRAME":"TEME","MEAN_MOTION_DDOT":"0.0000000000000","CLASSIFICATION_TYPE":"U","CENTER_NAME":"EARTH","REV_AT_EPOCH":"4532","RCS_SIZE":"LARGE","MEAN_ELEMENT_THEORY":"SGP4","ARG_OF_PERICENTER":"65.9819","LAUNCH_DATE":"2021-05-04","EPHEMERIS_TYPE":"0","TLE_LINE1":"1 48366U 21038P   22057.87022813  .00001221  00000-0  10088-3 0  9994","NORAD_CAT_ID":"48366","ECCENTRICITY":"0.00015060","FILE":"3327391","OBJECT_ID":"2021-038P","APOAPSIS":"548.294","TIME_SYSTEM":"UTC","GP_ID":"197159575","BSTAR":"0.00010088000000","MEAN_ANOMALY":"294.1327","PERIAPSIS":"546.208","PERIOD":"95.593","INCLINATION":"53.0551","DECAY_DATE":null,"OBJECT_TYPE":"PAYLOAD","RA_OF_ASC_NODE":"118.8679","SITE":"AFETR","SEMIMAJOR_AXIS":"6925.386","MEAN_MOTION_DOT":"0.00001221","ELEMENT_SET_NO":"999","OBJECT_NAME":"STARLINK-2631"},{"ARG_OF_PERICENTER":"50.8713","LAUNCH_DATE":"2021-05-04","MEAN_ELEMENT_THEORY":"SGP4","RCS_SIZE":"LARGE","REV_AT_EPOCH":"4532","TLE_LINE1":"1 48367U 21038Q   22057.86654243  .00001779  00000-0  13831-3 0  9999","EPHEMERIS_TYPE":"0","TLE_LINE2":"2 48367  53.0539 118.8983 0001538  50.8713 309.2413 15.06391683 45322","EPOCH":"2022-02-26T20:47:49.265952","CENTER_NAME":"EARTH","MEAN_MOTION_DDOT":"0.0000000000000","CLASSIFICATION_TYPE":"U","REF_FRAME":"TEME","COUNTRY_CODE":"US","MEAN_MOTION":"15.06391683","PERIOD":"95.593","INCLINATION":"53.0539","PERIAPSIS":"546.174","MEAN_ANOMALY":"309.2413","BSTAR":"0.00013831000000","SEMIMAJOR_AXIS":"6925.374","ELEMENT_SET_NO":"999","MEAN_MOTION_DOT":"0.00001779","OBJECT_NAME":"STARLINK-2643","SITE":"AFETR","RA_OF_ASC_NODE":"118.8983","OBJECT_TYPE":"PAYLOAD","DECAY_DATE":null,"APOAPSIS":"548.304","FILE":"3327391","OBJECT_ID":"2021-038Q","ECCENTRICITY":"0.00015380","NORAD_CAT_ID":"48367","GP_ID":"197159826","TIME_SYSTEM":"UTC"},{"OBJECT_NAME":"STARLINK-2623","SEMIMAJOR_AXIS":"6925.393","MEAN_MOTION_DOT":"0.00000909","ELEMENT_SET_NO":"999","SITE":"AFETR","DECAY_DATE":null,"RA_OF_ASC_NODE":"120.2899","OBJECT_TYPE":"PAYLOAD","PERIAPSIS":"546.110","MEAN_ANOMALY":"300.8762","INCLINATION":"53.0546","PERIOD":"95.593","BSTAR":"0.00007996400000","TIME_SYSTEM":"UTC","GP_ID":"197111762","APOAPSIS":"548.406","FILE":"3326397","OBJECT_ID":"2021-038R","NORAD_CAT_ID":"48368","ECCENTRICITY":"0.00016580","TLE_LINE1":"1 48368U 21038R   22057.55229632  .00000909  00000-0  79964-4 0  9990","EPHEMERIS_TYPE":"0","LAUNCH_DATE":"2021-05-04","ARG_OF_PERICENTER":"59.2390","RCS_SIZE":"LARGE","REV_AT_EPOCH":"4528","MEAN_ELEMENT_THEORY":"SGP4","COUNTRY_CODE":"US","MEAN_MOTION_DDOT":"0.0000000000000","CLASSIFICATION_TYPE":"U","CENTER_NAME":"EARTH","REF_FRAME":"TEME","MEAN_MOTION":"15.06385546","TLE_LINE2":"2 48368  53.0546 120.2899 0001658  59.2390 300.8762 15.06385546 45281","EPOCH":"2022-02-26T13:15:18.402048"},{"EPOCH":"2022-02-26T11:09:16.807104","TLE_LINE2":"2 48369  53.0558 120.6828 0001584  53.0298 307.0836 15.06386903 45265","MEAN_MOTION":"15.06386903","REF_FRAME":"TEME","MEAN_MOTION_DDOT":"0.0000000000000","CENTER_NAME":"EARTH","CLASSIFICATION_TYPE":"U","COUNTRY_CODE":"US","MEAN_ELEMENT_THEORY":"SGP4","REV_AT_EPOCH":"4526","RCS_SIZE":"LARGE","LAUNCH_DATE":"2021-05-04","ARG_OF_PERICENTER":"53.0298","EPHEMERIS_TYPE":"0","TLE_LINE1":"1 48369U 21038S   22057.46477786 -.00000863  00000-0 -39063-4 0  9993","NORAD_CAT_ID":"48369","ECCENTRICITY":"0.00015840","FILE":"3326397","OBJECT_ID":"2021-038S","APOAPSIS":"548.351","GP_ID":"197110511","TIME_SYSTEM":"UTC","BSTAR":"-0.00003906300000","PERIOD":"95.593","INCLINATION":"53.0558","MEAN_ANOMALY":"307.0836","PERIAPSIS":"546.157","OBJECT_TYPE":"PAYLOAD","RA_OF_ASC_NODE":"120.6828","DECAY_DATE":null,"SITE":"AFETR","MEAN_MOTION_DOT":"-0.00000863","SEMIMAJOR_AXIS":"6925.389","ELEMENT_SET_NO":"999","OBJECT_NAME":"STARLINK-2641"},{"EPOCH":"2022-02-26T12:39:30.425472","TLE_LINE2":"2 48370  53.0551 120.4082 0001530  59.7434 300.3706 15.06389449 45277","MEAN_MOTION":"15.06389449","COUNTRY_CODE":"US","REF_FRAME":"TEME","MEAN_MOTION_DDOT":"0.0000000000000","CLASSIFICATION_TYPE":"U","CENTER_NAME":"EARTH","REV_AT_EPOCH":"4527","RCS_SIZE":"LARGE","MEAN_ELEMENT_THEORY":"SGP4","LAUNCH_DATE":"2021-05-04","ARG_OF_PERICENTER":"59.7434","EPHEMERIS_TYPE":"0","TLE_LINE1":"1 48370U 21038T   22057.52743548  .00002010  00000-0  15385-3 0  9998","NORAD_CAT_ID":"48370","ECCENTRICITY":"0.00015300","OBJECT_ID":"2021-038T","FILE":"3327391","APOAPSIS":"548.305","TIME_SYSTEM":"UTC","GP_ID":"197159075","BSTAR":"0.00015385000000","MEAN_ANOMALY":"300.3706","PERIAPSIS":"546.186","PERIOD":"95.593","INCLINATION":"53.0551","DECAY_DATE":null,"OBJECT_TYPE":"PAYLOAD","RA_OF_ASC_NODE":"120.4082","SITE":"AFETR","SEMIMAJOR_AXIS":"6925.381","MEAN_MOTION_DOT":"0.00002010","OBJECT_NAME":"STARLINK-2621","ELEMENT_SET_NO":"999"},{"OBJECT_NAME":"STARLINK-2589","SEMIMAJOR_AXIS":"6925.400","MEAN_MOTION_DOT":"0.00001282","ELEMENT_SET_NO":"999","SITE":"AFETR","DECAY_DATE":null,"RA_OF_ASC_NODE":"120.1437","OBJECT_TYPE":"PAYLOAD","PERIAPSIS":"546.194","MEAN_ANOMALY":"300.4650","PERIOD":"95.593","INCLINATION":"53.0560","BSTAR":"0.00010499000000","TIME_SYSTEM":"UTC","GP_ID":"197160327","APOAPSIS":"548.337","OBJECT_ID":"2021-038U","FILE":"3327391","NORAD_CAT_ID":"48371","ECCENTRICITY":"0.00015470","TLE_LINE1":"1 48371U 21038U   22057.59009778  .00001282  00000-0  10499-3 0  9997","EPHEMERIS_TYPE":"0","ARG_OF_PERICENTER":"59.6492","LAUNCH_DATE":"2021-05-04","RCS_SIZE":"LARGE","REV_AT_EPOCH":"4528","MEAN_ELEMENT_THEORY":"SGP4","COUNTRY_CODE":"US","MEAN_MOTION_DDOT":"0.0000000000000","CLASSIFICATION_TYPE":"U","CENTER_NAME":"EARTH","REF_FRAME":"TEME","MEAN_MOTION":"15.06383147","TLE_LINE2":"2 48371  53.0560 120.1437 0001547  59.6492 300.4650 15.06383147 45289","EPOCH":"2022-02-26T14:09:44.448192"}];
